IDEFIX & ARIANE 42P R/B 
1 27422U 02021B   24036.56116125  .00000483  00000+0  20403-3 0  9990
2 27422  98.5160 337.0049 0010962 276.1107  83.8826 14.29950935134916
AQUA                    
1 27424U 02022A   24036.62141382  .00001509  00000+0  33271-3 0  9990
2 27424  98.3155 345.6671 0001537 108.2393  10.1667 14.58830521157344
CZ-4B R/B               
1 27432U 02024C   24036.59464318  .00000091  00000+0  70453-4 0  9993
2 27432  98.9955  78.1557 0050701  27.4241  87.3430 14.14279398121367
MIDORI II (ADEOS-II)    
1 27597U 02056A   24036.56528087  .00000523  00000+0  22783-3 0  9993
2 27597  98.6772 343.9222 0002023  75.8714 284.2692 14.28185217101324
H-2A R/B                
1 27601U 02056E   24036.54435266  .00000572  00000+0  21980-3 0  9995
2 27601  98.2161  20.3087 0070229 277.3246 190.9850 14.32639557104794
CZ-4B R/B               
1 28059U 03049C   24036.47859867  .00000776  00000+0  19470-3 0  9992
2 28059  98.5931 355.2677 0050187  42.1810 318.3230 14.53535142 75660
CZ-2C R/B               
1 28222U 04012C   24036.54819527  .00011172  00000+0  47808-3 0  9990
2 28222  97.8093  44.0344 0037738 149.5328 210.8111 15.22338333 86891
SL-16 R/B               
1 28353U 04021B   24036.41780218 -.00000179  00000+0 -68668-4 0  9990
2 28353  71.0010  34.0180 0002988 141.8663 218.2671 14.14381890 14904
CZ-4B R/B               
1 28415U 04035C   24036.61310282  .00005803  00000+0  31804-3 0  9994
2 28415  97.4429  73.2949 0045981 121.6693 238.9035 15.13654066 63899
CZ-2C R/B               
1 28480U 04046B   24036.57249116  .00000350  00000+0  14761-3 0  9995
2 28480  98.1463 349.8122 0139707 251.4472 107.1490 14.26239041999681
ARIANE 5 R/B            
1 28499U 04049H   24036.61946601  .00001387  00000+0  17084-3 0  9998
2 28499  98.1617 171.7386 0087966 302.1368  57.1331 14.82024194 32637
CZ-2D R/B               
1 28738U 05024B   24036.53061164  .00011226  00000+0  48596-3 0  9996
2 28738  97.3619  37.3878 0007375 247.1685 112.8773 15.22560534 22451
SUZAKU (ASTRO-EII)      
1 28773U 05025A   24036.46156363  .00024054  00000+0  63032-3 0  9999
2 28773  31.3905 314.5159 0003436 333.8390  26.2089 15.37483476 26499
ALOS (DAICHI)           
1 28931U 06002A   24036.42006745  .00001926  00000+0  36747-3 0  9991
2 28931  98.0205 352.5215 0001125 124.6144 235.5165 14.65078934961531
H-2A R/B                
1 28932U 06002B   24036.50681754  .00006887  00000+0  54004-3 0  9997
2 28932  98.2176 120.8997 0075739 280.9784  78.2924 14.99054953979448
RESURS-DK 1             
1 29228U 06021A   24036.45024289  .00002992  00000+0  20996-3 0  9991
2 29228  69.9350  41.9294 0006904 244.5152 115.5297 15.06293694972326
GENESIS 1               
1 29252U 06029A   24036.33768528  .00014696  00000+0  46253-3 0  9992
2 29252  64.5172 252.6196 0007162 329.3651  30.7060 15.33134494970181
CZ-4B R/B               
1 29507U 06046C   24036.61146424  .00004404  00000+0  29971-3 0  9994
2 29507  97.6626  73.4689 0041902  11.1587 349.0559 15.06114731944750
CZ-2C R/B               
1 31114U 07010B   24036.41035211  .00000166  00000+0  96097-4 0  9997
2 31114  98.3082 180.4013 0059322 356.1719   3.8997 14.19701451871399
COSMO-SKYMED 1          
1 31598U 07023A   24036.54533026  .00000190  00000+0  30379-4 0  9996
2 31598  97.8818 221.6411 0001374  83.6236 276.5134 14.82150466901475
GENESIS 2               
1 31789U 07028A   24036.63706915  .00014300  00000+0  46043-3 0  9994
2 31789  64.4932 296.6466 0037763 230.6759 129.1021 15.31756225917083
COSMOS 2428             
1 31792U 07029A   24036.36546353  .00000326  00000+0  20124-3 0  9992
2 31792  70.9473   5.4167 0012572 239.8974 120.0901 14.12685994856287
SL-16 R/B               
1 31793U 07029B   24036.59806657  .00000125  00000+0  89774-4 0  9998
2 31793  70.9784 336.1810 0002082 276.3502 256.9250 14.14595222857441
KORONAS-FOTON           
1 33504U 09003A   24036.32738625  .00009236  00000+0  38072-3 0  9990
2 33504  82.4405 336.9860 0016214 357.0343   3.0795 15.23816844828772
CZ-2C R/B               
1 37731U 11030B   24036.51353674  .00002457  00000+0  34702-3 0  9991
2 37731  97.7463   5.4271 0055664 311.6700 162.4283 14.77007948677263
H-2A R/B                
1 38341U 12025E   24036.60721495  .00003836  00000+0  42013-3 0  9990
2 38341  98.4331 299.8700 0050455 278.0820  81.4672 14.87524334634473
CUSAT 2 & FALCON 9 R/B  
1 39271U 13055G   24036.62119705  .00049781 -35578-6  70157-3 0  9999
2 39271  80.9365 237.4639 0364620  26.2324 335.6861 15.05642381545325
SHIJIAN-16 (SJ-16)      
1 39358U 13057A   24036.56751333  .00001745  00000+0  19219-3 0  9993
2 39358  74.9727 185.4845 0017830 160.2480 199.9401 14.88093609557818
CZ-2C R/B               
1 39364U 13059B   24036.38362603  .00063019  00000+0  73693-3 0  9998
2 39364  97.0682  84.7400 0020780 318.3892  41.5784 15.61115228572323
SL-4 R/B                
1 39679U 14021B   24036.27429031  .00010899  00000+0  43256-3 0  9994
2 39679  51.6129  37.0920 0142226 248.4458 110.1307 15.16996331539579
ALOS-2                  
1 39766U 14029A   24036.54981139  .00001823  00000+0  25085-3 0  9998
2 39766  97.9226 135.1027 0001424 101.1888 258.9483 14.79476904524039
SL-27 R/B               
1 40354U 14084B   24036.58589910  .00031533  00000+0  33457-3 0  9992
2 40354  74.7299 136.5651 0024204   7.9927 352.1678 15.63551116513341
YAOGAN-29               
1 41038U 15069A   24036.60703648  .00000811  00000+0  11041-3 0  9995
2 41038  98.0611  50.2195 0001298 356.6473   3.4730 14.81486109442839
ASTRO-H (HITOMI)        
1 41337U 16012A   24036.59354057  .00003907  00000+0  27944-3 0  9998
2 41337  31.0009 214.8683 0011198 257.6527 102.2855 15.02660369437059
HXMT (HUIYAN)           
1 42758U 17034A   24036.57636003  .00009532  00000+0  50521-3 0  9990
2 42758  43.0155 289.2327 0000364  18.1968 341.8892 15.15531762366720
CZ-2C R/B               
1 43521U 18054D   24036.54857302  .00011550  00000+0  44368-3 0  9991
2 43521  35.1484 233.0901 0063391  12.3587 347.8671 15.23768078310599
SAOCOM 1A               
1 43641U 18076A   24036.55375827  .00000846  00000+0  11283-3 0  9992
2 43641  97.8864 224.6805 0001400  86.1391 273.9982 14.82159045288324
H-2A R/B                
1 43682U 18084L   24036.45916469  .00008693  00000+0  49725-3 0  9998
2 43682  98.8656 102.5746 0048071  91.6349 269.0385 15.11983733289423
SAOCOM 1B               
1 46265U 20059A   24036.58496510  .00000845  00000+0  11274-3 0  9996
2 46265  97.8869 223.7988 0001471  89.6261 270.5120 14.82148758185713
CSS (TIANHE)            
1 48274U 21035A   24036.36608808  .00018602  00000+0  20127-3 0  9991
2 48274  41.4670 174.6636 0008465 305.7971  54.2081 15.63100177158305
COSMOS 2550             
1 48865U 21056A   24036.39313563  .00003046  00000+0  98377-4 0  9993
2 48865  67.1415 190.0678 0008442 271.5439  88.4749 15.33828145146402
2022-019U               
1 51842U 22019U   24036.49589312  .00061344  00000+0  10228-2 0  9992
2 51842  97.5152 135.3021 0038095 222.5813 137.2484 15.50947371108408
CZ-2C R/B               
1 52794U 22058K   24036.46650599  .00009091  00000+0  39568-3 0  9995
2 52794  50.1699 170.6308 0087136 314.8606  44.5294 15.19537738 92915
CZ-2C R/B               
1 53131U 22082D   24036.59292253  .00112359  00000+0  80937-3 0  9999
2 53131  97.3252  63.9922 0022522  91.9047 268.4797 15.72883753 88139
XRISM                   
1 57800U 23137A   24036.56696529  .00006267  00000+0  49222-3 0  9991
2 57800  31.0031 135.6488 0009812 335.3812  24.6354 14.99466116 22678
